SEEDS II (CO-66)        
1 32791U 08021J   26068.92109284  .00023758  00000+0  84213-3 0  9995
2 32791  97.7519  62.3611 0001448 359.2618   0.8619 15.29097235972108
STARLINK-34138          
1 63971U 25099V   26068.34322387  .00028264  00000+0  10320-2 0  9994
2 63971  43.0010 174.6815 0004306 288.6513  71.3871 15.27596925 47328
